*******************************************************************************
Ephemeris / WWW_USER Mon Mar 10 07:15:08 2025 Pasadena, USA      / Horizons    
*******************************************************************************
Target body name: (2018 OG)                       {source: JPL#12}
Center body name: Earth (399)                     {source: DE441}
Center-site name: Mauna Kea
*******************************************************************************
Start time      : A.D. 2018-Aug-18 04:58:00.0000 UT      
Stop  time      : A.D. 2018-Aug-18 15:53:00.0000 UT      
Step-size       : 1 minutes
*******************************************************************************
Target pole/equ : undefined
Target radii    : undefined                                                    
Center geodetic : 204.5278, 19.8260847, 4.21024   {E-lon(deg),Lat(deg),Alt(km)}
Center cylindric: 204.5278, 6006.35451, 2151.0229 {E-lon(deg),Dxy(km),Dz(km)}
Center pole/equ : ITRF93                          {East-longitude positive}
Center radii    : 6378.137, 6378.137, 6356.752 km {Equator_a, b, pole_c}       
Target primary  : Sun
Vis. interferer : MOON (R_eq= 1737.400) km        {source: DE441}
Rel. light bend : Sun                             {source: DE441}
Rel. lght bnd GM: 1.3271E+11 km^3/s^2                                          
Small-body perts: Yes                             {source: SB441-N16}
Atmos refraction: NO (AIRLESS)
RA format       : HMS
Time format     : CAL 
Calendar mode   : Mixed Julian/Gregorian
RTS-only print  : NO       
EOP file        : eop.250307.p250603                                           
EOP coverage    : DATA-BASED 1962-JAN-20 TO 2025-MAR-07. PREDICTS-> 2025-JUN-02
Units conversion: 1 au= 149597870.700 km, c= 299792.458 km/s, 1 day= 86400.0 s 
Table cut-offs 1: Elevation (-90.0deg=NO ),Airmass (>38.000=NO), Daylight (YES)
Table cut-offs 2: Solar elongation (  0.0,180.0=NO ),Local Hour Angle( 0.0=NO )
Table cut-offs 3: RA/DEC angular rate (     0.0=NO )                           
*******************************************************************************
Initial IAU76/J2000 heliocentric ecliptic osculating elements (au, days, deg.):
  EPOCH=  2458389.5 ! 2018-Sep-28.00 (TDB)         Residual RMS= .17662        
   EC= .5817218672922059   QR= .9873203561553971   TP= 2458366.942240702       
   OM= 131.0345430575832   W=  220.7633135105564   IN= 9.123860581277821       
  Equivalent ICRF heliocentric cartesian coordinates (au, au/d):
   X= 9.625437195102586E-01  Y= 3.686106454146055E-01  Z=-5.877845729655690E-03
  VX=-3.555418036941177E-03 VY= 1.979451357965206E-02 VZ= 6.659913004156397E-03
Asteroid physical parameters (km, seconds, rotational period in hours):        
   GM= n.a.                RAD= n.a.               ROTPER= n.a.                
   H= 23.6                 G= .150                 B-V= n.a.                   
                           ALBEDO= n.a.            STYP= n.a.                  
*******************************************************************************
 Date__(UT)__HR:MN     R.A._________(ICRF)_________DEC
******************************************************
$$SOE
 2018-Aug-18 04:58 Cm  04 03 44.506018 -15 18 43.91184
 2018-Aug-18 04:59 Cm  04 03 45.040950 -15 18 42.76440
 2018-Aug-18 05:00 Cm  04 03 45.575829 -15 18 41.61744
 2018-Aug-18 05:01 Cm  04 03 46.110656 -15 18 40.47097
 2018-Aug-18 05:02 Cm  04 03 46.645429 -15 18 39.32498
 2018-Aug-18 05:03 Cm  04 03 47.180149 -15 18 38.17948
 2018-Aug-18 05:04 Cm  04 03 47.714814 -15 18 37.03446
 2018-Aug-18 05:05 Cm  04 03 48.249424 -15 18 35.88993
 2018-Aug-18 05:06 Cm  04 03 48.783979 -15 18 34.74587
 2018-Aug-18 05:07 Cm  04 03 49.318478 -15 18 33.60231
 2018-Aug-18 05:08 Cm  04 03 49.852920 -15 18 32.45922
 2018-Aug-18 05:09 Cm  04 03 50.387305 -15 18 31.31662
 2018-Aug-18 05:10 Cm  04 03 50.921633 -15 18 30.17450
 2018-Aug-18 05:11 Cm  04 03 51.455903 -15 18 29.03286
 2018-Aug-18 05:12 Nm  04 03 51.990114 -15 18 27.89171
 2018-Aug-18 05:13 Nm  04 03 52.524266 -15 18 26.75103
 2018-Aug-18 05:14 Nm  04 03 53.058358 -15 18 25.61084
 2018-Aug-18 05:15 Nm  04 03 53.592390 -15 18 24.47112
 2018-Aug-18 05:16 Nm  04 03 54.126362 -15 18 23.33189
 2018-Aug-18 05:17 Nm  04 03 54.660272 -15 18 22.19314
 2018-Aug-18 05:18 Nm  04 03 55.194121 -15 18 21.05487
 2018-Aug-18 05:19 Nm  04 03 55.727907 -15 18 19.91707
 2018-Aug-18 05:20 Nm  04 03 56.261630 -15 18 18.77976
 2018-Aug-18 05:21 Nm  04 03 56.795291 -15 18 17.64292
 2018-Aug-18 05:22 Nm  04 03 57.328887 -15 18 16.50656
 2018-Aug-18 05:23 Nm  04 03 57.862419 -15 18 15.37068
 2018-Aug-18 05:24 Nm  04 03 58.395886 -15 18 14.23528
 2018-Aug-18 05:25 Nm  04 03 58.929288 -15 18 13.10035
 2018-Aug-18 05:26 Nm  04 03 59.462623 -15 18 11.96590
 2018-Aug-18 05:27 Nm  04 03 59.995893 -15 18 10.83193
 2018-Aug-18 05:28 Nm  04 04 00.529095 -15 18 09.69843
 2018-Aug-18 05:29 Nm  04 04 01.062230 -15 18 08.56540
 2018-Aug-18 05:30 Nm  04 04 01.595297 -15 18 07.43285
 2018-Aug-18 05:31 Nm  04 04 02.128295 -15 18 06.30077
 2018-Aug-18 05:32 Nm  04 04 02.661224 -15 18 05.16917
 2018-Aug-18 05:33 Nm  04 04 03.194084 -15 18 04.03804
 2018-Aug-18 05:34 Nm  04 04 03.726874 -15 18 02.90738
 2018-Aug-18 05:35 Nm  04 04 04.259593 -15 18 01.77720
 2018-Aug-18 05:36 Nm  04 04 04.792241 -15 18 00.64748
 2018-Aug-18 05:37 Nm  04 04 05.324818 -15 17 59.51824
 2018-Aug-18 05:38 Nm  04 04 05.857322 -15 17 58.38947
 2018-Aug-18 05:39 Am  04 04 06.389754 -15 17 57.26116
 2018-Aug-18 05:40 Am  04 04 06.922113 -15 17 56.13333
 2018-Aug-18 05:41 Am  04 04 07.454398 -15 17 55.00597
 2018-Aug-18 05:42 Am  04 04 07.986609 -15 17 53.87907
 2018-Aug-18 05:43 Am  04 04 08.518745 -15 17 52.75264
 2018-Aug-18 05:44 Am  04 04 09.050806 -15 17 51.62667
 2018-Aug-18 05:45 Am  04 04 09.582791 -15 17 50.50118
 2018-Aug-18 05:46 Am  04 04 10.114700 -15 17 49.37615
 2018-Aug-18 05:47 Am  04 04 10.646533 -15 17 48.25158
 2018-Aug-18 05:48 Am  04 04 11.178288 -15 17 47.12748
 2018-Aug-18 05:49 Am  04 04 11.709965 -15 17 46.00384
 2018-Aug-18 05:50 Am  04 04 12.241565 -15 17 44.88066
 2018-Aug-18 05:51 Am  04 04 12.773085 -15 17 43.75795
 2018-Aug-18 05:52 Am  04 04 13.304527 -15 17 42.63570
 2018-Aug-18 05:53 Am  04 04 13.835888 -15 17 41.51391
 2018-Aug-18 05:54 Am  04 04 14.367170 -15 17 40.39258
 2018-Aug-18 05:55 Am  04 04 14.898371 -15 17 39.27171
 2018-Aug-18 05:56 Am  04 04 15.429490 -15 17 38.15130
 2018-Aug-18 05:57 Am  04 04 15.960528 -15 17 37.03135
 2018-Aug-18 05:58 Am  04 04 16.491483 -15 17 35.91185
 2018-Aug-18 05:59 Am  04 04 17.022356 -15 17 34.79281
 2018-Aug-18 06:00 Am  04 04 17.553146 -15 17 33.67423
 2018-Aug-18 06:01 Am  04 04 18.083852 -15 17 32.55611
 2018-Aug-18 06:02 Am  04 04 18.614474 -15 17 31.43843
 2018-Aug-18 06:03 Am  04 04 19.145011 -15 17 30.32122
 2018-Aug-18 06:04 Am  04 04 19.675462 -15 17 29.20445
 2018-Aug-18 06:05 Am  04 04 20.205829 -15 17 28.08814
 2018-Aug-18 06:06  m  04 04 20.736108 -15 17 26.97228
 2018-Aug-18 06:07  m  04 04 21.266302 -15 17 25.85687
 2018-Aug-18 06:08  m  04 04 21.796408 -15 17 24.74191
 2018-Aug-18 06:09  m  04 04 22.326426 -15 17 23.62740
 2018-Aug-18 06:10  m  04 04 22.856357 -15 17 22.51334
 2018-Aug-18 06:11  m  04 04 23.386199 -15 17 21.39972
 2018-Aug-18 06:12  m  04 04 23.915951 -15 17 20.28655
 2018-Aug-18 06:13  m  04 04 24.445614 -15 17 19.17383
 2018-Aug-18 06:14  m  04 04 24.975187 -15 17 18.06155
 2018-Aug-18 06:15  m  04 04 25.504670 -15 17 16.94972
 2018-Aug-18 06:16  m  04 04 26.034061 -15 17 15.83833
 2018-Aug-18 06:17  m  04 04 26.563361 -15 17 14.72739
 2018-Aug-18 06:18  m  04 04 27.092569 -15 17 13.61688
 2018-Aug-18 06:19  m  04 04 27.621684 -15 17 12.50682
 2018-Aug-18 06:20  m  04 04 28.150707 -15 17 11.39719
 2018-Aug-18 06:21  m  04 04 28.679636 -15 17 10.28801
 2018-Aug-18 06:22  m  04 04 29.208471 -15 17 09.17926
 2018-Aug-18 06:23  m  04 04 29.737212 -15 17 08.07095
 2018-Aug-18 06:24  m  04 04 30.265858 -15 17 06.96307
 2018-Aug-18 06:25  m  04 04 30.794408 -15 17 05.85564
 2018-Aug-18 06:26  m  04 04 31.322863 -15 17 04.74863
 2018-Aug-18 06:27  m  04 04 31.851222 -15 17 03.64206
 2018-Aug-18 06:28  m  04 04 32.379483 -15 17 02.53592
 2018-Aug-18 06:29  m  04 04 32.907648 -15 17 01.43022
 2018-Aug-18 06:30  m  04 04 33.435715 -15 17 00.32494
 2018-Aug-18 06:31  m  04 04 33.963684 -15 16 59.22009
 2018-Aug-18 06:32  m  04 04 34.491554 -15 16 58.11567
 2018-Aug-18 06:33  m  04 04 35.019325 -15 16 57.01168
 2018-Aug-18 06:34  m  04 04 35.546996 -15 16 55.90812
 2018-Aug-18 06:35  m  04 04 36.074568 -15 16 54.80498
 2018-Aug-18 06:36  m  04 04 36.602039 -15 16 53.70227
 2018-Aug-18 06:37  m  04 04 37.129409 -15 16 52.59998
 2018-Aug-18 06:38  m  04 04 37.656678 -15 16 51.49811
 2018-Aug-18 06:39  m  04 04 38.183845 -15 16 50.39666
 2018-Aug-18 06:40  m  04 04 38.710910 -15 16 49.29564
 2018-Aug-18 06:41  m  04 04 39.237872 -15 16 48.19503
 2018-Aug-18 06:42  m  04 04 39.764731 -15 16 47.09484
 2018-Aug-18 06:43  m  04 04 40.291486 -15 16 45.99507
 2018-Aug-18 06:44  m  04 04 40.818137 -15 16 44.89572
 2018-Aug-18 06:45  m  04 04 41.344684 -15 16 43.79678
 2018-Aug-18 06:46  m  04 04 41.871125 -15 16 42.69825
 2018-Aug-18 06:47  m  04 04 42.397461 -15 16 41.60014
 2018-Aug-18 06:48  m  04 04 42.923692 -15 16 40.50244
 2018-Aug-18 06:49  m  04 04 43.449815 -15 16 39.40515
 2018-Aug-18 06:50  m  04 04 43.975833 -15 16 38.30827
 2018-Aug-18 06:51  m  04 04 44.501743 -15 16 37.21180
 2018-Aug-18 06:52  m  04 04 45.027545 -15 16 36.11573
 2018-Aug-18 06:53  m  04 04 45.553239 -15 16 35.02007
 2018-Aug-18 06:54  m  04 04 46.078825 -15 16 33.92482
 2018-Aug-18 06:55  m  04 04 46.604301 -15 16 32.82997
 2018-Aug-18 06:56  m  04 04 47.129669 -15 16 31.73552
 2018-Aug-18 06:57  m  04 04 47.654926 -15 16 30.64148
 2018-Aug-18 06:58  m  04 04 48.180074 -15 16 29.54783
 2018-Aug-18 06:59  m  04 04 48.705110 -15 16 28.45459
 2018-Aug-18 07:00  m  04 04 49.230035 -15 16 27.36174
